start=new Date('2023-01-03T00:00:00.000Z').valueOf();
sats=[{"TLE_LINE2":"2 52842  53.2166 209.9136 0003235  28.7860 331.3311 15.08837844 30387","MEAN_MOTION_DOT":"-0.00001239","ECCENTRICITY":"0.00032350","BSTAR":"-0.00005970300000","RA_OF_ASC_NODE":"209.9136","REV_AT_EPOCH":"3038","MEAN_MOTION_DDOT":"0.0000000000000","TIME_SYSTEM":"UTC","RCS_SIZE":"LARGE","OBJECT_TYPE":"PAYLOAD","EPHEMERIS_TYPE":"0","INCLINATION":"53.2166","GP_ID":"222065035","COUNTRY_CODE":"US","PERIAPSIS":"537.514","SITE":"AFETR","ELEMENT_SET_NO":"999","LAUNCH_DATE":"2022-06-17","PERIOD":"95.438","OBJECT_NAME":"STARLINK-4046","EPOCH":"2023-01-02T19:59:32.435520","CLASSIFICATION_TYPE":"U","MEAN_MOTION":"15.08837844","NORAD_CAT_ID":"52842","DECAY_DATE":null,"CENTER_NAME":"EARTH","OBJECT_ID":"2022-062N","MEAN_ANOMALY":"331.3311","REF_FRAME":"TEME","FILE":"3729873","MEAN_ELEMENT_THEORY":"SGP4","SEMIMAJOR_AXIS":"6917.887","APOAPSIS":"541.990","TLE_LINE1":"1 52842U 22062N   23002.83301430 -.00001239  00000-0 -59703-4 0  9997","ARG_OF_PERICENTER":"28.7860"},{"FILE":"3729868","MEAN_ELEMENT_THEORY":"SGP4","APOAPSIS":"541.745","SEMIMAJOR_AXIS":"6917.900","REF_FRAME":"TEME","TLE_LINE1":"1 52843U 22062P   23002.93604861 -.00000195  00000-0  58551-5 0  9993","ARG_OF_PERICENTER":"35.9474","CLASSIFICATION_TYPE":"U","MEAN_MOTION":"15.08833712","EPOCH":"2023-01-02T22:27:54.599904","DECAY_DATE":null,"NORAD_CAT_ID":"52843","PERIOD":"95.438","OBJECT_NAME":"STARLINK-4188","OBJECT_ID":"2022-062P","MEAN_ANOMALY":"324.1710","CENTER_NAME":"EARTH","GP_ID":"222041623","COUNTRY_CODE":"US","PERIAPSIS":"537.784","OBJECT_TYPE":"PAYLOAD","EPHEMERIS_TYPE":"0","INCLINATION":"53.2148","ELEMENT_SET_NO":"999","LAUNCH_DATE":"2022-06-17","SITE":"AFETR","BSTAR":"0.00000585510000","TLE_LINE2":"2 52843  53.2148 209.4429 0002863  35.9474 324.1710 15.08833712 30894","MEAN_MOTION_DOT":"-0.00000195","ECCENTRICITY":"0.00028630","TIME_SYSTEM":"UTC","RCS_SIZE":"LARGE","RA_OF_ASC_NODE":"209.4429","MEAN_MOTION_DDOT":"0.0000000000000","REV_AT_EPOCH":"3089"},{"TLE_LINE1":"1 52844U 22062Q   23002.68579068 -.00002960  00000-0 -16788-3 0  9993","ARG_OF_PERICENTER":"28.2541","FILE":"3729873","MEAN_ELEMENT_THEORY":"SGP4","APOAPSIS":"542.116","SEMIMAJOR_AXIS":"6917.864","REF_FRAME":"TEME","OBJECT_ID":"2022-062Q","MEAN_ANOMALY":"331.8638","CENTER_NAME":"EARTH","MEAN_MOTION":"15.08845299","EPOCH":"2023-01-02T16:27:32.314752","CLASSIFICATION_TYPE":"U","DECAY_DATE":null,"NORAD_CAT_ID":"52844","PERIOD":"95.437","OBJECT_NAME":"STARLINK-4208","ELEMENT_SET_NO":"999","LAUNCH_DATE":"2022-06-17","SITE":"AFETR","GP_ID":"222065537","COUNTRY_CODE":"US","PERIAPSIS":"537.343","OBJECT_TYPE":"PAYLOAD","EPHEMERIS_TYPE":"0","INCLINATION":"53.2139","TIME_SYSTEM":"UTC","RCS_SIZE":"LARGE","RA_OF_ASC_NODE":"210.5686","MEAN_MOTION_DDOT":"0.0000000000000","REV_AT_EPOCH":"3036","BSTAR":"-0.00016788000000","TLE_LINE2":"2 52844  53.2139 210.5686 0003450  28.2541 331.8638 15.08845299 30365","MEAN_MOTION_DOT":"-0.00002960","ECCENTRICITY":"0.00034500"},{"ARG_OF_PERICENTER":"35.4999","TLE_LINE1":"1 52845U 22062R   23002.86709297 -.00001156  00000-0 -54539-4 0  9996","SEMIMAJOR_AXIS":"6917.924","APOAPSIS":"541.973","MEAN_ELEMENT_THEORY":"SGP4","FILE":"3729873","REF_FRAME":"TEME","OBJECT_ID":"2022-062R","MEAN_ANOMALY":"324.6202","CENTER_NAME":"EARTH","CLASSIFICATION_TYPE":"U","EPOCH":"2023-01-02T20:48:36.832608","MEAN_MOTION":"15.08825788","NORAD_CAT_ID":"52845","DECAY_DATE":null,"PERIOD":"95.438","OBJECT_NAME":"STARLINK-4168","ELEMENT_SET_NO":"999","LAUNCH_DATE":"2022-06-17","SITE":"AFETR","GP_ID":"222065787","PERIAPSIS":"537.605","COUNTRY_CODE":"US","EPHEMERIS_TYPE":"0","OBJECT_TYPE":"PAYLOAD","INCLINATION":"53.2151","TIME_SYSTEM":"UTC","RCS_SIZE":"LARGE","RA_OF_ASC_NODE":"209.7602","REV_AT_EPOCH":"3039","MEAN_MOTION_DDOT":"0.0000000000000","BSTAR":"-0.00005453900000","TLE_LINE2":"2 52845  53.2151 209.7602 0003157  35.4999 324.6202 15.08825788 30390","ECCENTRICITY":"0.00031570","MEAN_MOTION_DOT":"-0.00001156"},{"BSTAR":"-0.00007745200000","ECCENTRICITY":"0.00032320","MEAN_MOTION_DOT":"-0.00001521","TLE_LINE2":"2 52846  53.2141 209.7239 0003232  33.0086 327.1108 15.08831706 30391","RCS_SIZE":"LARGE","TIME_SYSTEM":"UTC","MEAN_MOTION_DDOT":"0.0000000000000","REV_AT_EPOCH":"3039","RA_OF_ASC_NODE":"209.7239","PERIAPSIS":"537.535","COUNTRY_CODE":"US","GP_ID":"222064536","INCLINATION":"53.2141","EPHEMERIS_TYPE":"0","OBJECT_TYPE":"PAYLOAD","LAUNCH_DATE":"2022-06-17","ELEMENT_SET_NO":"999","SITE":"AFETR","DECAY_DATE":null,"NORAD_CAT_ID":"52846","EPOCH":"2023-01-02T20:57:49.042656","MEAN_MOTION":"15.08831706","CLASSIFICATION_TYPE":"U","OBJECT_NAME":"STARLINK-4212","PERIOD":"95.438","OBJECT_ID":"2022-062S","MEAN_ANOMALY":"327.1108","CENTER_NAME":"EARTH","SEMIMAJOR_AXIS":"6917.906","APOAPSIS":"542.007","MEAN_ELEMENT_THEORY":"SGP4","FILE":"3729873","REF_FRAME":"TEME","ARG_OF_PERICENTER":"33.0086","TLE_LINE1":"1 52846U 22062S   23002.87348429 -.00001521  00000-0 -77452-4 0  9999"},{"OBJECT_NAME":"STARLINK-4206","PERIOD":"95.438","DECAY_DATE":null,"NORAD_CAT_ID":"52847","EPOCH":"2023-01-02T22:17:18.245760","MEAN_MOTION":"15.08830892","CLASSIFICATION_TYPE":"U","CENTER_NAME":"EARTH","OBJECT_ID":"2022-062T","MEAN_ANOMALY":"309.1209","REF_FRAME":"TEME","SEMIMAJOR_AXIS":"6917.908","APOAPSIS":"541.122","MEAN_ELEMENT_THEORY":"SGP4","FILE":"3729842","ARG_OF_PERICENTER":"50.9957","TLE_LINE1":"1 52847U 22062T   23002.92868340  .00000737  00000-0  64432-4 0  9995","ECCENTRICITY":"0.00019500","MEAN_MOTION_DOT":"0.00000737","TLE_LINE2":"2 52847  53.2139 209.4778 0001950  50.9957 309.1209 15.08830892 30896","BSTAR":"0.00006443200000","MEAN_MOTION_DDOT":"0.0000000000000","REV_AT_EPOCH":"3089","RA_OF_ASC_NODE":"209.4778","RCS_SIZE":"LARGE","TIME_SYSTEM":"UTC","INCLINATION":"53.2139","EPHEMERIS_TYPE":"0","OBJECT_TYPE":"PAYLOAD","PERIAPSIS":"538.424","COUNTRY_CODE":"US","GP_ID":"222040921","SITE":"AFETR","LAUNCH_DATE":"2022-06-17","ELEMENT_SET_NO":"999"},{"RCS_SIZE":"LARGE","TIME_SYSTEM":"UTC","REV_AT_EPOCH":"3035","MEAN_MOTION_DDOT":"0.0000000000000","RA_OF_ASC_NODE":"210.8877","BSTAR":"0.00001864700000","ECCENTRICITY":"0.00030170","MEAN_MOTION_DOT":"0.00000008","TLE_LINE2":"2 52848  53.2145 210.8877 0003017  35.1128 325.0062 15.08851727 30356","LAUNCH_DATE":"2022-06-17","ELEMENT_SET_NO":"999","SITE":"AFETR","PERIAPSIS":"537.622","COUNTRY_CODE":"US","GP_ID":"222031994","INCLINATION":"53.2145","EPHEMERIS_TYPE":"0","OBJECT_TYPE":"PAYLOAD","MEAN_ANOMALY":"325.0062","OBJECT_ID":"2022-062U","CENTER_NAME":"EARTH","NORAD_CAT_ID":"52848","DECAY_DATE":null,"CLASSIFICATION_TYPE":"U","EPOCH":"2023-01-02T14:46:52.527072","MEAN_MOTION":"15.08851727","OBJECT_NAME":"STARLINK-4202","PERIOD":"95.437","ARG_OF_PERICENTER":"35.1128","TLE_LINE1":"1 52848U 22062U   23002.61588573  .00000008  00000-0  18647-4 0  9997","SEMIMAJOR_AXIS":"6917.845","APOAPSIS":"541.797","MEAN_ELEMENT_THEORY":"SGP4","FILE":"3729583","REF_FRAME":"TEME"},{"TLE_LINE1":"1 52849U 22062V   23002.92225337  .00002161  00000-0  15395-3 0  9996","ARG_OF_PERICENTER":"35.9512","MEAN_ELEMENT_THEORY":"SGP4","FILE":"3729873","SEMIMAJOR_AXIS":"6917.920","APOAPSIS":"542.346","REF_FRAME":"TEME","MEAN_ANOMALY":"324.1728","OBJECT_ID":"2022-062V","CENTER_NAME":"EARTH","NORAD_CAT_ID":"52849","DECAY_DATE":null,"EPOCH":"2023-01-02T22:08:02.691168","MEAN_MOTION":"15.08827094","CLASSIFICATION_TYPE":"U","OBJECT_NAME":"STARLINK-4197","PERIOD":"95.438","LAUNCH_DATE":"2022-06-17","ELEMENT_SET_NO":"999","SITE":"AFETR","COUNTRY_CODE":"US","PERIAPSIS":"537.224","GP_ID":"222066287","INCLINATION":"53.2174","OBJECT_TYPE":"PAYLOAD","EPHEMERIS_TYPE":"0","RCS_SIZE":"LARGE","TIME_SYSTEM":"UTC","MEAN_MOTION_DDOT":"0.0000000000000","REV_AT_EPOCH":"3053","RA_OF_ASC_NODE":"199.4984","BSTAR":"0.00015395000000","MEAN_MOTION_DOT":"0.00002161","ECCENTRICITY":"0.00037020","TLE_LINE2":"2 52849  53.2174 199.4984 0003702  35.9512 324.1728 15.08827094 30535"},{"MEAN_ANOMALY":"315.8448","OBJECT_ID":"2022-062W","CENTER_NAME":"EARTH","MEAN_MOTION":"15.08837514","CLASSIFICATION_TYPE":"U","EPOCH":"2023-01-02T22:22:35.692320","NORAD_CAT_ID":"52850","DECAY_DATE":null,"PERIOD":"95.438","OBJECT_NAME":"STARLINK-4187","TLE_LINE1":"1 52850U 22062W   23002.93235755  .00001010  00000-0  81563-4 0  9997","ARG_OF_PERICENTER":"44.2739","FILE":"3729868","MEAN_ELEMENT_THEORY":"SGP4","SEMIMAJOR_AXIS":"6917.888","APOAPSIS":"541.442","REF_FRAME":"TEME","TIME_SYSTEM":"UTC","RCS_SIZE":"LARGE","RA_OF_ASC_NODE":"209.4569","REV_AT_EPOCH":"3089","MEAN_MOTION_DDOT":"0.0000000000000","BSTAR":"0.00008156300000","TLE_LINE2":"2 52850  53.2176 209.4569 0002441  44.2739 315.8448 15.08837514 30896","MEAN_MOTION_DOT":"0.00001010","ECCENTRICITY":"0.00024410","ELEMENT_SET_NO":"999","LAUNCH_DATE":"2022-06-17","SITE":"AFETR","GP_ID":"222041625","COUNTRY_CODE":"US","PERIAPSIS":"538.064","OBJECT_TYPE":"PAYLOAD","EPHEMERIS_TYPE":"0","INCLINATION":"53.2176"},{"INCLINATION":"53.2168","EPHEMERIS_TYPE":"0","OBJECT_TYPE":"PAYLOAD","PERIAPSIS":"537.135","COUNTRY_CODE":"US","GP_ID":"222065286","SITE":"AFETR","LAUNCH_DATE":"2022-06-17","ELEMENT_SET_NO":"999","ECCENTRICITY":"0.00037660","MEAN_MOTION_DOT":"0.00000666","TLE_LINE2":"2 52851  53.2168 200.4047 0003766  32.2961 327.8261 15.08841677 30504","BSTAR":"0.00006001300000","REV_AT_EPOCH":"3050","MEAN_MOTION_DDOT":"0.0000000000000","RA_OF_ASC_NODE":"200.4047","RCS_SIZE":"LARGE","TIME_SYSTEM":"UTC","REF_FRAME":"TEME","SEMIMAJOR_AXIS":"6917.875","APOAPSIS":"542.346","MEAN_ELEMENT_THEORY":"SGP4","FILE":"3729873","ARG_OF_PERICENTER":"32.2961","TLE_LINE1":"1 52851U 22062X   23002.71983484  .00000666  00000-0  60013-4 0  9996","OBJECT_NAME":"STARLINK-3809","PERIOD":"95.437","DECAY_DATE":null,"NORAD_CAT_ID":"52851","EPOCH":"2023-01-02T17:16:33.730176","MEAN_MOTION":"15.08841677","CLASSIFICATION_TYPE":"U","CENTER_NAME":"EARTH","MEAN_ANOMALY":"327.8261","OBJECT_ID":"2022-062X"}];
